QIANFAN-18              
1 60396U 24140T   26064.22038737  .00000104  00000+0  14249-3 0  9992
2 60396  88.9722 290.4415 0013162 316.2937  43.7171 13.51003585 78662
QIANFAN-19              
1 61552U 24185A   26064.21957888  .00000675  00000+0  34537-3 0  9997
2 61552  88.9759  68.4708 0008665  51.9646 308.2322 14.14386691 81323
QIANFAN-20              
1 61553U 24185B   26064.28699121  .00000655  00000+0  37107-3 0  9992
2 61553  88.9756  68.8702 0007899  83.4142 276.7941 14.08933167 81110
QIANFAN-21              
1 61554U 24185C   26064.25376489  .00000848  00000+0  37203-3 0  9990
2 61554  88.9677  67.2950 0013012  93.8369 266.4311 14.22727639 81704
QIANFAN-22              
1 61555U 24185D   26064.21683022  .00000313  00000+0  25887-3 0  9993
2 61555  88.9740  70.1928 0008590 100.9585 259.2553 13.86338540 80366
QIANFAN-23              
1 61556U 24185E   26064.21998522  .00000741  00000+0  36584-3 0  9999
2 61556  88.9751  68.2416 0009593  59.8626 300.3511 14.16391803 81426
QIANFAN-24              
1 61557U 24185F   26064.25716929  .00001034  00000+0  44486-3 0  9999
2 61557  88.9735  67.5073 0010637  39.9687 320.2286 14.23931657 81769
QIANFAN-25              
1 61558U 24185G   26064.28098118  .00000586  00000+0  34900-3 0  9997
2 61558  88.9748  68.8289 0011917  66.3528 293.8904 14.05994808 81104
QIANFAN-26              
1 61559U 24185H   26064.24693020  .00000306  00000+0  29273-3 0  9994
2 61559  88.9745  70.8289 0007673 113.5971 246.6002 13.77861256 80030
QIANFAN-27              
1 61560U 24185J   26064.25949824  .00000716  00000+0  28576-3 0  9993
2 61560  88.9748  67.2503 0008694  33.4106 326.7635 14.27442958 81930
QIANFAN-28              
1 61561U 24185K   26064.26921626  .00001189  00000+0  47169-3 0  9999
2 61561  88.9763  67.2562 0008298  34.3782 325.7948 14.28211956 81954
QIANFAN-29              
1 61562U 24185L   26064.24383989  .00000208  00000+0  30389-3 0  9999
2 61562  88.9718  72.7686 0010338 160.7612 199.3932 13.51043469 78936
QIANFAN-30              
1 61563U 24185M   26064.28121150  .00000208  00000+0  30838-3 0  9993
2 61563  88.9738  72.3218 0008645 144.7782 215.3941 13.50018557 79203
QIANFAN-31              
1 61564U 24185N   26064.28067928  .00000226  00000+0  29541-3 0  9995
2 61564  88.9723  71.9923 0008313 136.3440 223.8374 13.58002917 79368
QIANFAN-32              
1 61565U 24185P   26064.27811236  .00000171  00000+0  24632-3 0  9999
2 61565  88.9782  72.4816 0009683 173.6228 186.5048 13.50763852 79187
QIANFAN-33              
1 61566U 24185Q   26064.29914288  .00000534  00000+0  37588-3 0  9990
2 61566  88.9737  69.5855 0009299  74.3397 285.8806 13.96622710 80684
QIANFAN-34              
1 61567U 24185R   26064.28261069  .00000576  00000+0  36624-3 0  9998
2 61567  88.9713  69.0412 0008304  78.0208 282.1903 14.02382773 80926
