[{"OBJECT_NAME":"QIANFAN-18","OBJECT_ID":"2024-140T","EPOCH":"2026-03-05T05:17:21.468768","MEAN_MOTION":13.51003585,"ECCENTRICITY":0.00131623,"INCLINATION":88.9722,"RA_OF_ASC_NODE":290.4415,"ARG_OF_PERICENTER":316.2937,"MEAN_ANOMALY":43.7171,"EPHEMERIS_TYPE":0,"CLASSIFICATION_TYPE":"U","NORAD_CAT_ID":60396,"ELEMENT_SET_NO":999,"REV_AT_EPOCH":7866,"BSTAR":0.00014248771,"MEAN_MOTION_DOT":1.04e-6,"MEAN_MOTION_DDOT":0},{"OBJECT_NAME":"QIANFAN-19","OBJECT_ID":"2024-185A","EPOCH":"2026-03-05T05:16:11.615232","MEAN_MOTION":14.14386691,"ECCENTRICITY":0.00086656,"INCLINATION":88.9759,"RA_OF_ASC_NODE":68.4708,"ARG_OF_PERICENTER":51.9646,"MEAN_ANOMALY":308.2322,"EPHEMERIS_TYPE":0,"CLASSIFICATION_TYPE":"U","NORAD_CAT_ID":61552,"ELEMENT_SET_NO":999,"REV_AT_EPOCH":8132,"BSTAR":0.00034537143,"MEAN_MOTION_DOT":6.75e-6,"MEAN_MOTION_DDOT":0},{"OBJECT_NAME":"QIANFAN-20","OBJECT_ID":"2024-185B","EPOCH":"2026-03-05T06:53:16.040544","MEAN_MOTION":14.08933167,"ECCENTRICITY":0.00078995,"INCLINATION":88.9756,"RA_OF_ASC_NODE":68.8702,"ARG_OF_PERICENTER":83.4142,"MEAN_ANOMALY":276.7941,"EPHEMERIS_TYPE":0,"CLASSIFICATION_TYPE":"U","NORAD_CAT_ID":61553,"ELEMENT_SET_NO":999,"REV_AT_EPOCH":8111,"BSTAR":0.00037107206,"MEAN_MOTION_DOT":6.55e-6,"MEAN_MOTION_DDOT":0},{"OBJECT_NAME":"QIANFAN-21","OBJECT_ID":"2024-185C","EPOCH":"2026-03-05T06:05:25.286496","MEAN_MOTION":14.22727639,"ECCENTRICITY":0.00130123,"INCLINATION":88.9677,"RA_OF_ASC_NODE":67.295,"ARG_OF_PERICENTER":93.8369,"MEAN_ANOMALY":266.4311,"EPHEMERIS_TYPE":0,"CLASSIFICATION_TYPE":"U","NORAD_CAT_ID":61554,"ELEMENT_SET_NO":999,"REV_AT_EPOCH":8170,"BSTAR":0.0003720321,"MEAN_MOTION_DOT":8.48e-6,"MEAN_MOTION_DDOT":0},{"OBJECT_NAME":"QIANFAN-22","OBJECT_ID":"2024-185D","EPOCH":"2026-03-05T05:12:14.131008","MEAN_MOTION":13.8633854,"ECCENTRICITY":0.00085901,"INCLINATION":88.974,"RA_OF_ASC_NODE":70.1928,"ARG_OF_PERICENTER":100.9585,"MEAN_ANOMALY":259.2553,"EPHEMERIS_TYPE":0,"CLASSIFICATION_TYPE":"U","NORAD_CAT_ID":61555,"ELEMENT_SET_NO":999,"REV_AT_EPOCH":8036,"BSTAR":0.00025887395,"MEAN_MOTION_DOT":3.13e-6,"MEAN_MOTION_DDOT":0},{"OBJECT_NAME":"QIANFAN-23","OBJECT_ID":"2024-185E","EPOCH":"2026-03-05T05:16:46.723008","MEAN_MOTION":14.16391803,"ECCENTRICITY":0.00095932,"INCLINATION":88.9751,"RA_OF_ASC_NODE":68.2416,"ARG_OF_PERICENTER":59.8626,"MEAN_ANOMALY":300.3511,"EPHEMERIS_TYPE":0,"CLASSIFICATION_TYPE":"U","NORAD_CAT_ID":61556,"ELEMENT_SET_NO":999,"REV_AT_EPOCH":8142,"BSTAR":0.00036584074,"MEAN_MOTION_DOT":7.41e-6,"MEAN_MOTION_DDOT":0},{"OBJECT_NAME":"QIANFAN-24","OBJECT_ID":"2024-185F","EPOCH":"2026-03-05T06:10:19.426656","MEAN_MOTION":14.23931657,"ECCENTRICITY":0.00106377,"INCLINATION":88.9735,"RA_OF_ASC_NODE":67.5073,"ARG_OF_PERICENTER":39.9687,"MEAN_ANOMALY":320.2286,"EPHEMERIS_TYPE":0,"CLASSIFICATION_TYPE":"U","NORAD_CAT_ID":61557,"ELEMENT_SET_NO":999,"REV_AT_EPOCH":8176,"BSTAR":0.00044486179,"MEAN_MOTION_DOT":1.034e-5,"MEAN_MOTION_DDOT":0},{"OBJECT_NAME":"QIANFAN-25","OBJECT_ID":"2024-185G","EPOCH":"2026-03-05T06:44:36.773952","MEAN_MOTION":14.05994808,"ECCENTRICITY":0.00119176,"INCLINATION":88.9748,"RA_OF_ASC_NODE":68.8289,"ARG_OF_PERICENTER":66.3528,"MEAN_ANOMALY":293.8904,"EPHEMERIS_TYPE":0,"CLASSIFICATION_TYPE":"U","NORAD_CAT_ID":61558,"ELEMENT_SET_NO":999,"REV_AT_EPOCH":8110,"BSTAR":0.00034900444,"MEAN_MOTION_DOT":5.86e-6,"MEAN_MOTION_DDOT":0},{"OBJECT_NAME":"QIANFAN-26","OBJECT_ID":"2024-185H","EPOCH":"2026-03-05T05:55:34.769280","MEAN_MOTION":13.77861256,"ECCENTRICITY":0.0007673,"INCLINATION":88.9745,"RA_OF_ASC_NODE":70.8289,"ARG_OF_PERICENTER":113.5971,"MEAN_ANOMALY":246.6002,"EPHEMERIS_TYPE":0,"CLASSIFICATION_TYPE":"U","NORAD_CAT_ID":61559,"ELEMENT_SET_NO":999,"REV_AT_EPOCH":8003,"BSTAR":0.00029272741,"MEAN_MOTION_DOT":3.06e-6,"MEAN_MOTION_DDOT":0},{"OBJECT_NAME":"QIANFAN-27","OBJECT_ID":"2024-185J","EPOCH":"2026-03-05T06:13:40.647936","MEAN_MOTION":14.27442958,"ECCENTRICITY":0.00086943,"INCLINATION":88.9748,"RA_OF_ASC_NODE":67.2503,"ARG_OF_PERICENTER":33.4106,"MEAN_ANOMALY":326.7635,"EPHEMERIS_TYPE":0,"CLASSIFICATION_TYPE":"U","NORAD_CAT_ID":61560,"ELEMENT_SET_NO":999,"REV_AT_EPOCH":8193,"BSTAR":0.00028576239,"MEAN_MOTION_DOT":7.16e-6,"MEAN_MOTION_DDOT":0},{"OBJECT_NAME":"QIANFAN-28","OBJECT_ID":"2024-185K","EPOCH":"2026-03-05T06:27:40.284864","MEAN_MOTION":14.28211956,"ECCENTRICITY":0.00082988,"INCLINATION":88.9763,"RA_OF_ASC_NODE":67.2562,"ARG_OF_PERICENTER":34.3782,"MEAN_ANOMALY":325.7948,"EPHEMERIS_TYPE":0,"CLASSIFICATION_TYPE":"U","NORAD_CAT_ID":61561,"ELEMENT_SET_NO":999,"REV_AT_EPOCH":8195,"BSTAR":0.00047169113,"MEAN_MOTION_DOT":1.189e-5,"MEAN_MOTION_DDOT":0},{"OBJECT_NAME":"QIANFAN-29","OBJECT_ID":"2024-185L","EPOCH":"2026-03-05T05:51:07.766496","MEAN_MOTION":13.51043469,"ECCENTRICITY":0.00103389,"INCLINATION":88.9718,"RA_OF_ASC_NODE":72.7686,"ARG_OF_PERICENTER":160.7612,"MEAN_ANOMALY":199.3932,"EPHEMERIS_TYPE":0,"CLASSIFICATION_TYPE":"U","NORAD_CAT_ID":61562,"ELEMENT_SET_NO":999,"REV_AT_EPOCH":7893,"BSTAR":0.00030389453,"MEAN_MOTION_DOT":2.08e-6,"MEAN_MOTION_DDOT":0},{"OBJECT_NAME":"QIANFAN-30","OBJECT_ID":"2024-185M","EPOCH":"2026-03-05T06:44:56.673600","MEAN_MOTION":13.50018557,"ECCENTRICITY":0.00086453,"INCLINATION":88.9738,"RA_OF_ASC_NODE":72.3218,"ARG_OF_PERICENTER":144.7782,"MEAN_ANOMALY":215.3941,"EPHEMERIS_TYPE":0,"CLASSIFICATION_TYPE":"U","NORAD_CAT_ID":61563,"ELEMENT_SET_NO":999,"REV_AT_EPOCH":7920,"BSTAR":0.00030838448,"MEAN_MOTION_DOT":2.08e-6,"MEAN_MOTION_DDOT":0},{"OBJECT_NAME":"QIANFAN-31","OBJECT_ID":"2024-185N","EPOCH":"2026-03-05T06:44:10.689792","MEAN_MOTION":13.58002917,"ECCENTRICITY":0.00083131,"INCLINATION":88.9723,"RA_OF_ASC_NODE":71.9923,"ARG_OF_PERICENTER":136.344,"MEAN_ANOMALY":223.8374,"EPHEMERIS_TYPE":0,"CLASSIFICATION_TYPE":"U","NORAD_CAT_ID":61564,"ELEMENT_SET_NO":999,"REV_AT_EPOCH":7936,"BSTAR":0.00029541431,"MEAN_MOTION_DOT":2.26e-6,"MEAN_MOTION_DDOT":0},{"OBJECT_NAME":"QIANFAN-32","OBJECT_ID":"2024-185P","EPOCH":"2026-03-05T06:40:28.907904","MEAN_MOTION":13.50763852,"ECCENTRICITY":0.00096839,"INCLINATION":88.9782,"RA_OF_ASC_NODE":72.4816,"ARG_OF_PERICENTER":173.6228,"MEAN_ANOMALY":186.5048,"EPHEMERIS_TYPE":0,"CLASSIFICATION_TYPE":"U","NORAD_CAT_ID":61565,"ELEMENT_SET_NO":999,"REV_AT_EPOCH":7918,"BSTAR":0.00024632292,"MEAN_MOTION_DOT":1.71e-6,"MEAN_MOTION_DDOT":0},{"OBJECT_NAME":"QIANFAN-33","OBJECT_ID":"2024-185Q","EPOCH":"2026-03-05T07:10:45.944832","MEAN_MOTION":13.9662271,"ECCENTRICITY":0.00092994,"INCLINATION":88.9737,"RA_OF_ASC_NODE":69.5855,"ARG_OF_PERICENTER":74.3397,"MEAN_ANOMALY":285.8806,"EPHEMERIS_TYPE":0,"CLASSIFICATION_TYPE":"U","NORAD_CAT_ID":61566,"ELEMENT_SET_NO":999,"REV_AT_EPOCH":8068,"BSTAR":0.00037588331,"MEAN_MOTION_DOT":5.34e-6,"MEAN_MOTION_DDOT":0},{"OBJECT_NAME":"QIANFAN-34","OBJECT_ID":"2024-185R","EPOCH":"2026-03-05T06:46:57.563616","MEAN_MOTION":14.02382773,"ECCENTRICITY":0.00083045,"INCLINATION":88.9713,"RA_OF_ASC_NODE":69.0412,"ARG_OF_PERICENTER":78.0208,"MEAN_ANOMALY":282.1903,"EPHEMERIS_TYPE":0,"CLASSIFICATION_TYPE":"U","NORAD_CAT_ID":61567,"ELEMENT_SET_NO":999,"REV_AT_EPOCH":8092,"BSTAR":0.00036624452,"MEAN_MOTION_DOT":5.76e-6,"MEAN_MOTION_DDOT":0}]
